NORAD_CAT_ID,OBJECT_NAME,OBJECT_TYPE,EPOCH,MEAN_MOTION,ECCENTRICITY,INCLINATION,RA_OF_ASC_NODE,ARG_OF_PERICENTER,MEAN_ANOMALY,BSTAR,MEAN_MOTION_DOT,MEAN_MOTION_DDOT,TLE_LINE0,TLE_LINE1,TLE_LINE2,SEMIMAJOR_AXIS,PERIOD,APOGEE,PERIGEE,DECAYED
53551.0,STARLINK-4514,PAYLOAD,2022-09-30 14:00:01,15.59224538,0.0001197,53.2168,308.2136,61.7358,226.2578,-0.01462,-0.01063186,0.0,0 STARLINK-4514,1 53551U 22101AA  22273.58334491 -.01063186  00000-0 -14620-1 0  9999,2 53551  53.2168 308.2136 0001197  61.7358 226.2578 15.59224538  6593,6768.0369999999975,92.354,390.712,389.092,0.0
53551.0,STARLINK-4514,PAYLOAD,2022-09-30 22:00:00,15.5846208,0.0001048,53.2173,306.5955,65.9683,293.6988,-0.015007,-0.01060272,0.0,0 STARLINK-4514,1 53551U 22101AA  22273.91667824 -.01060272  00000-0 -15007-1 0  9998,2 53551  53.2173 306.5955 0001048  65.9683 293.6988 15.58462080  1303,6770.244000000002,92.399,392.819,391.4,0.0
53551.0,STARLINK-4514,PAYLOAD,2022-10-01 14:00:01,15.56943095,0.0001238,53.2173,303.3732,67.9075,72.3591,-0.015872,-0.01058974,0.0,0 STARLINK-4514,1 53551U 22101AA  22274.58334491 -.01058974  00000-0 -15872-1 0  9999,2 53551  53.2173 303.3732 0001238  67.9075  72.3591 15.56943095  6753,6774.647,92.489,397.351,395.673,0.0
53551.0,STARLINK-4514,PAYLOAD,2022-10-01 22:00:00,15.56183256,0.0001254,53.2174,301.7618,69.7704,139.4292,-0.016321,-0.01058418,0.0,0 STARLINK-4514,1 53551U 22101AA  22274.91667824 -.01058418  00000-0 -16321-1 0  9998,2 53551  53.2174 301.7618 0001254  69.7704 139.4292 15.56183256  1300,6776.852,92.534,399.567,397.867,0.0
53551.0,STARLINK-4514,PAYLOAD,2022-10-02 06:00:00,15.55435911,0.0001158,53.2174,300.1561,73.2698,203.9418,-0.017071,-0.01074974,0.0,0 STARLINK-4514,1 53551U 22101AA  22275.25001157 -.01074974  00000-0 -17071-1 0  9995,2 53551  53.2174 300.1561 0001158  73.2698 203.9418 15.55435911  6854,6779.023,92.579,401.673,400.103,0.0
53551.0,STARLINK-4514,PAYLOAD,2022-10-02 14:00:01,15.54676548,0.0001185,53.2169,298.5519,55.5357,288.7803,-0.01753,-0.01073421,0.0,0 STARLINK-4514,1 53551U 22101AA  22275.58334491 -.01073421  00000-0 -17530-1 0  9997,2 53551  53.2169 298.5519 0001185  55.5357 288.7803 15.54676548  1302,6781.23,92.624,403.899,402.291,0.0
53551.0,STARLINK-4514,PAYLOAD,2022-10-02 22:00:00,15.53904819,0.0001220999999999,53.2174,296.9448,52.3673,358.1511,-0.017764,-0.01058727,0.0,0 STARLINK-4514,1 53551U 22101AA  22275.91667824 -.01058727  00000-0 -17764-1 0  9994,2 53551  53.2174 296.9448 0001221  52.3673 358.1511 15.53904819  1300,6783.475,92.67,406.168,404.512,0.0
53551.0,STARLINK-4514,PAYLOAD,2022-10-03 06:00:00,15.53158875,0.0001268,53.2173,295.3448,70.9626,44.8286,-0.018591,-0.01076401,0.0,0 STARLINK-4514,1 53551U 22101AA  22276.25001157 -.01076401  00000-0 -18591-1 0  9991,2 53551  53.2173 295.3448 0001268  70.9626  44.8286 15.53158875  7012,6785.647,92.714,408.372,406.651,0.0
53551.0,STARLINK-4514,PAYLOAD,2022-10-03 14:00:01,15.52403797,0.0001465,53.2166,293.7458,56.0263,124.1296,-0.0192,-0.01081102,0.0,0 STARLINK-4514,1 53551U 22101AA  22276.58334491 -.01081102  00000-0 -19200-1 0  9999,2 53551  53.2166 293.7458 0001465  56.0263 124.1296 15.52403797  1302,6787.847,92.759,410.706,408.718,0.0
53551.0,STARLINK-4514,PAYLOAD,2022-10-03 22:00:00,15.51626398,0.0001257,53.2173,292.1443,68.1223,175.5005,-0.0192789999999999,-0.01057682,0.0,0 STARLINK-4514,1 53551U 22101AA  22276.91667824 -.01057682  00000-0 -19279-1 0  9997,2 53551  53.2173 292.1443 0001257  68.1223 175.5005 15.51626398  1307,6790.114000000001,92.806,412.833,411.126,0.0
53551.0,STARLINK-4514,PAYLOAD,2022-10-04 14:00:01,15.50086731,0.0001283,53.2166,288.9564,64.3474,303.4536,-0.0053843999999999,-0.00296866,0.0,0 STARLINK-4514,1 53551U 22101AA  22277.58334491 -.00296866  00000-0 -53844-2 0  9997,2 53551  53.2166 288.9564 0001283  64.3474 303.4536 15.50086731  1302,6794.61,92.898,417.346,415.603,0.0
53551.0,STARLINK-4514,PAYLOAD,2022-10-04 22:00:00,15.49884612,0.0001186,53.2173,287.3599,83.1904,345.6341,1.3352e-05,3.07e-06,0.0,0 STARLINK-4514,1 53551U 22101AA  22277.91667824  .00000307  00000-0  13352-4 0  9996,2 53551  53.2173 287.3599 0001186  83.1904 345.6341 15.49884612  7276,6795.2,92.91,417.871,416.259,0.0
53551.0,STARLINK-4514,PAYLOAD,2022-10-05 14:00:01,15.49913477,0.0001394,53.215,284.1828,57.0129,133.7775,-0.00010671,-6.509e-05,0.0,0 STARLINK-4514,1 53551U 22101AA  22278.58335648 -.00006509  00000-0 -10671-3 0  9998,2 53551  53.2150 284.1828 0001394  57.0129 133.7775 15.49913477  7371,6795.116,92.908,417.92800000000005,416.034,0.0
53551.0,STARLINK-4514,PAYLOAD,2022-10-05 22:00:00,15.49879459,0.0001188,53.2148,282.5879,62.7952,188.887,-2.4487e-05,-1.84e-05,0.0,0 STARLINK-4514,1 53551U 22101AA  22278.91667824 -.00001840  00000-0 -24487-4 0  9993,2 53551  53.2148 282.5879 0001188  62.7952 188.8870 15.49879459  1309,6795.215,92.91,417.888,416.273,0.0
53551.0,STARLINK-4514,PAYLOAD,2022-10-06 06:00:00,15.49881635,0.0001284,53.2145,280.9965,55.8942,256.6939,7.6093e-05,3.869e-05,0.0,0 STARLINK-4514,1 53551U 22101AA  22279.25001157  .00003869  00000-0  76093-4 0  9993,2 53551  53.2145 280.9965 0001284  55.8942 256.6939 15.49881635  7476,6795.209,92.91,417.947,416.202,0.0
53551.0,STARLINK-4514,PAYLOAD,2022-10-06 14:00:01,15.49901959,0.0001313,53.214,279.4034,53.3838,320.1103,0.00020151,0.00011008,0.0,0 STARLINK-4514,1 53551U 22101AA  22279.58334491  .00011008  00000-0  20151-3 0  9996,2 53551  53.2140 279.4034 0001313  53.3838 320.1103 15.49901959  1309,6795.15,92.909,417.907,416.122,0.0
53551.0,STARLINK-4514,PAYLOAD,2022-10-06 22:42:55,15.49920217,0.0001252,53.2144,277.6651,68.5726,172.1825,-0.00076959,-0.00043939,0.0,0 STARLINK-4514,1 53551U 22101AA  22279.94646991 -.00043939  00000-0 -76959-3 0  9994,2 53551  53.2144 277.6651 0001252  68.5726 172.1825 15.49920217  1308,6795.096,92.908,417.812,416.111,0.0
53551.0,STARLINK-4514,PAYLOAD,2022-10-07 06:00:00,15.49928439,0.0001337,53.2138,276.217,61.7469,73.6398,-0.0017018,-0.0009601,0.0,0 STARLINK-4514,1 53551U 22101AA  22280.25001157 -.00096010  00000-0 -17018-2 0  9997,2 53551  53.2138 276.2170 0001337  61.7469  73.6398 15.49928439  7631,6795.071999999999,92.908,417.846,416.029,0.0
53551.0,STARLINK-4514,PAYLOAD,2022-10-07 14:00:01,15.49868218,0.0001204,53.2136,274.6237,57.3254,138.9831,-1.277e-05,-1.175e-05,0.0,0 STARLINK-4514,1 53551U 22101AA  22280.58334491 -.00001175  00000-0 -12770-4 0  9993,2 53551  53.2136 274.6237 0001204  57.3254 138.9831 15.49868218  1304,6795.248000000001,92.911,417.931,416.295,0.0
53551.0,STARLINK-4514,PAYLOAD,2022-10-07 22:00:00,15.49865529,0.0001049,53.2139,273.0288,68.0945,189.1092,0.00074196,0.00041855,0.0,0 STARLINK-4514,1 53551U 22101AA  22280.91667824  .00041855  00000-0  74196-3 0  9995,2 53551  53.2139 273.0288 0001049  68.0945 189.1092 15.49865529  1308,6795.255999999999,92.911,417.834,416.408,0.0
53551.0,STARLINK-4514,PAYLOAD,2022-10-08 06:00:00,15.49739135,0.0001257,53.2168,271.4316,50.8968,267.1413,0.0041273,0.00239879,0.0,0 STARLINK-4514,1 53551U 22101AA  22281.25001157  .00239879  00000-0  41273-2 0  9998,2 53551  53.2168 271.4316 0001257  50.8968 267.1413 15.49739135  7784,6795.626,92.919,418.345,416.636,0.0
53551.0,STARLINK-4514,PAYLOAD,2022-10-08 14:00:01,15.4991445,0.0001042,53.2147,269.8416,45.0961,333.8964,-0.0020036999999999,-0.00112666,0.0,0 STARLINK-4514,1 53551U 22101AA  22281.58334491 -.00112666  00000-0 -20037-2 0  9995,2 53551  53.2147 269.8416 0001042  45.0961 333.8964 15.49914450  1303,6795.113,92.908,417.686,416.27,0.0
53551.0,STARLINK-4514,PAYLOAD,2022-10-08 22:00:00,15.49832366,0.0001149999999999,53.216,268.244,54.739,25.1878,-0.010397,-0.00549837,0.0,0 STARLINK-4514,1 53551U 22101AA  22281.91667824 -.00549837  00000-0 -10397-1 0  9992,2 53551  53.2160 268.2440 0001150  54.7390  25.1878 15.49832366  7891,6795.353,92.913,417.999,416.437,0.0
53551.0,STARLINK-4514,PAYLOAD,2022-10-09 06:00:00,15.49523772,0.0001419,53.2172,266.6521,76.29899999999998,64.244,-0.020229,-0.01031856,0.0,0 STARLINK-4514,1 53551U 22101AA  22282.25001157 -.01031856  00000-0 -20229-1 0  9994,2 53551  53.2172 266.6521 0001419  76.2990  64.2440 15.49523772  7942,6796.255,92.932,419.085,417.156,0.0
53551.0,STARLINK-4514,PAYLOAD,2022-10-09 14:00:01,15.48796156,0.000137,53.2167,265.0604,59.468,141.0983,-0.021784,-0.01078153,0.0,0 STARLINK-4514,1 53551U 22101AA  22282.58334491 -.01078153  00000-0 -21784-1 0  9998,2 53551  53.2167 265.0604 0001370  59.4680 141.0983 15.48796156  1303,6798.384,92.975,421.18,419.317,0.0
53551.0,STARLINK-4514,PAYLOAD,2022-10-09 22:00:00,15.48021913,0.0001293,53.2175,263.4684,68.2691,191.4291,-0.021899,-0.01056778,0.0,0 STARLINK-4514,1 53551U 22101AA  22282.91667824 -.01056778  00000-0 -21899-1 0  9990,2 53551  53.2175 263.4684 0001293  68.2691 191.4291 15.48021913  8047,6800.65,93.022,423.395,421.636,0.0
53551.0,STARLINK-4514,PAYLOAD,2022-10-10 14:00:01,15.46504231,0.0001211999999999,53.2173,260.2956,55.6891,319.5182,-0.023148,-0.01059076,0.0,0 STARLINK-4514,1 53551U 22101AA  22283.58334491 -.01059076  00000-0 -23148-1 0  9998,2 53551  53.2173 260.2956 0001212  55.6891 319.5182 15.46504231  1306,6805.099,93.113,427.789,426.139,0.0
53551.0,STARLINK-4514,PAYLOAD,2022-10-10 22:00:01,15.45742774,0.0001351,53.2175,258.7101,53.1147,18.5442,-0.023675,-0.01055373,0.0,0 STARLINK-4514,1 53551U 22101AA  22283.91668981 -.01055373  00000-0 -23675-1 0  9990,2 53551  53.2175 258.7101 0001351  53.1147  18.5442 15.45742774  1303,6807.333000000001,93.159,430.11800000000005,428.279,0.0
53551.0,STARLINK-4514,PAYLOAD,2022-10-11 14:00:01,15.44225705,0.0001301,53.2173,255.5482,78.0811,103.5464,-0.025024,-0.01058464,0.0,0 STARLINK-4514,1 53551U 22101AA  22284.58334491 -.01058464  00000-0 -25024-1 0  9994,2 53551  53.2173 255.5482 0001301  78.0811 103.5464 15.44225705  1305,6811.791,93.251,434.542,432.77,0.0
